id,name,address,city,state,zip
0,The Cambridge House,357 Salmon Brook Street,Granby,CT,6035
1,Thomas Hooker Brewing,16 Tobey Road,Bloomfield,CT,6002
2,Amherst Brewing Company,24 North Pleasant Street,Amherst,MA,1002
3,Boston Beer Company,30 Germania Street,Boston,MA,2130
4,Boston Beer Works,61 Brookline Avenue,Boston,MA,2215
5,Brewery at Martha's Vineyard,,Oak Bluffs,MA,
6,Buzzards Bay Brewing Inc.,98 Horseneck Rd,Westport,MA,2790
7,Cambridge Brewing,1 Kendall Square #100,Cambridge,MA,2139
8,Cape Ann Brewing,27 Commercial Street,Gloucester,MA,1930
9,Commonwealth Brewing #1,,Boston,MA,
10,Element Brewing Company,30 Bridge St,Millers Falls,MA,01349
11,Harpoon Brewery - Boston,306 Northern Avenue,Boston,MA,2210
12,John Harvard's Brew House - Framingham,1 Worcester Road,Framingham,MA,1701
13,John Harvard's Brew House - Harvard Square,33 Dunster Street,Cambridge,MA,2138
14,Mercury Brewing Company,23 Hayward St.,Ipswich,MA,1938
15,New Century Brewing Company,PO Box 1498,Boston,MA,2117
16,Paper City Brewing Company,108 Cabot St.,Holyoke,MA,1040
17,Wachusetts Brewing Company,175 State Road East,Westminster,MA,1473
18,Watch City Brewing,256 Moody Street,Waltham,MA,2453
19,Allagash Brewing,100 Industrial Way,Portland,ME,4103
20,Andrew's Brewing,,Lincolnville,ME,4849
21,Atlantic Brewing Company,15 Knox Rd.,Bar Harbor,ME,4609
22,Bar Harbor Brewing Company,8 Mt. Desert Street,Bar Harbor,ME,4609
23,Baxter Brewing,,Lewiston,ME,
24,Belfast Bay Brewing Company,100 Searsport Avenue,Belfast,ME,4915
25,D.L. Geary Brewing Company,38 Evergreen Drive,Portland,ME,4103
26,Marshall Wharf Brewing Company,2 Pinchy Lane,Belfast,ME,4915
27,Pugsley Brewing,,Portland,ME,
28,Sea Dog Brewing Company,26 Front Street,Bangor,ME,4401
29,Shipyard Brewing - Portland,86 Newbury Street,Portland,ME,4101
30,Stone Coast Brewing - Portland,23 Rice Street,Portland,ME,4103
31,Castle Springs Brewery,,Moultonborough,NH,
32,Elm City Brewing Co,222 West St # 46,Keene,NH,3431
33,Milly's Tavern,500 Commercial Street,Manchester,NH,3102
34,Pennichuck Brewing Company,127 Elm St. | Unit C,Milford,NH,3055
35,Portsmouth Brewery,56 Market Street,Portsmouth,NH,3801
36,Smuttynose Brewing Co.,225 Heritage Ave,Portsmouth,NH,3801
37,Costal Extreme Brewing Company,307 Oliphant Lane,Middletown,RI,2842
38,The Narragansett Brewing Company,60 Ship Street,Providence,RI,2903
39,Bobcat Cafe & Brewery,4 Main Street,Bristol,VT,5443
40,Catamount Brewing,,White River Junction,VT,
41,Green Mountain Beverage,153 Pond Lane,Middlebury,VT,5753
42,Harpoon Brewery - Windsor,336 Ruth Carney Drive,Windsor,VT,5089
43,Kross Brewing,,Morrisville,VT,
44,Long Trail Brewing Co,Route 4 & 100A,Bridgewater Corners,VT,5035
45,Magic Hat,5 Bartlett Bay Road,South Burlington,VT,5403
46,Orlio Organic,5 Bartlett Bay Road,South Burlington,VT,5403
47,Otter Creek Brewing & Wolaver's Organic Ales,793 Exchange Street,Middlebury,VT,5753
48,Rock Art Brewery,254 Wilkins Street,Morrisville,VT,5661
49,Stonecutters Brewhouse,14 N Main St.,Barre,VT,5641
50,Switchback Brewing Co,PO Box 4210,Burlington,VT,5406
51,The Alchemist,23 South Main Street,Waterbury,VT,5676
52,Three Needs Brewery and Taproom,207 College Street,Burlington,VT,5401
53,Trout River Brewing,58 Broad Street,Lyndonville,VT,5851
54,Vermont Pub & Brewery,144 College St.,Burlington,VT,5401
55,Basil T's Brew Pub and Italian Grill,1171 Hooper Avenue,Toms River,NJ,8753
56,Climax Brewing Copmany,112 Valley Road,Roselle Park,NJ,7204
57,Cricket Hill,24 Kulick Road,Fairfield,NJ,7004
58,Flying Fish Brewing Company,1940 Olney Avenue,Cherry Hill,NJ,8003
59,Gaslight Brewery,15 South Orange Avenue,South Orange,NJ,7079
60,Harvest Moon Brewery / Cafe,392 George Street,New Brunswick,NJ,8901
61,Heavyweight Brewing,,Ocean,NJ,
62,High Point Wheat Beer Company,22 Park Place,Butler,NJ,7405
63,JJ Bitting Brewing,33 Main Street,Woodbridge,NJ,7095
64,Joshua Huddy's Brew Pub and Grill,,Toms River,NJ,8753
65,Krogh's Restaurant and Brewpub,23 White Deer Plaza,Sparta,NJ,7871
66,Long Valley Pub & Brewery,1 Fairmount Road,Long Valley,NJ,7853
67,New Jersey Beer Company,4201 Tonnelle Avenue,North Bergen,NJ,07047
68,Original Basil T's,183 Riverside Avenue,Red Bank,NJ,7701
69,Pizzeria Uno Chicago Grill & Brewery,61 US Highway 1 South,Metuchen,NJ,8840
70,River Horse Brewing Company,80 LAMBERT LANE,Lambertville,NJ,8530
71,Ship Inn Brewpub,61 Bridge Street,Milford,NJ,8848
72,Trap Rock Restaurant and Brewery,279 Springfield Avenue,Berkeley Heights,NJ,7922
73,Triumph Brewing of Princeton,138 Nassau Street,Princeton,NJ,8542
74,Blue Point Brewing,161 River Avenue,Patchogue,NY,11772
75,Brewery Ommegang,656 County Highway 33,Cooperstown,NY,13326
76,Brooklyn Brewery,79 North Eleventh Street,Brooklyn,NY,11211
77,C.H. Evans Brewing Company,19 Quackenbush Square,Albany,NY,12207
78,Captain Lawrence Brewing Company,99 Castleton Street,Pleasantville,NY,10570
79,Chelsea Brewing Company,Chelsea Piers | Pier 59,New York,NY,10011
80,Cooper's Cave Ale Company,2 Sagamore Street,Glens Falls,NY,12801
81,Cooperstown Brewing Company,River Street | P.O. Box 276,Milford,NY,13807
82,F.X. Matt Brewing,811 Edward Street,Utica,NY,13502
83,Flour City Brewing,,Rochester,NY,
84,Flying Bison Brewing,491 Ontario Street,Buffalo,NY,14207
85,Heartland Brewery Union Square,,New York,NY,10003
86,High Falls Brewing,445 St.Paul Street,Rochester,NY,14605
87,Ithaca Beer Company,600 Elmira Road,Ithaca,NY,14850
88,Lake Placid Pub & Brewery,813 Mirror Lake Drive,Lake Placid,NY,12946
89,Mendocino Brewing - Saratoga Springs,,Saratoga Springs,NY,
90,Middle Ages Brewing,120 Wilkinson Street,Syracuse,NY,13204
91,Mississippi Brewing Co.,,Utica,NY,11042
92,Panther Brewing Company,Utica NY 13502,Utica,NY,13502
93,Ramapo Valley Brewery,143 Highway 59 Building 6,Hillburn,NY,10931
94,Sixpoint Craft Ales,40 Van Dyke St,Brooklyn,NY,11231
95,Southampton Publick House,40 Bowden Square,Southampton,NY,11968
96,Southern Tier Brewing Co,2051A Stoneman Circle,Lakewood,NY,14750
97,The Blind Bat Brewery,420 Harrison Drive,Centerport,NY,11721
98,Two Dogs Beverage Company,272 Plandome Road,Manhasset,NY,11030
99,Wagner Valley Brewing,9322 State Route 414,Lodi,NY,14860
100,Warwick Valley Wine Co.,114 Little York Rd,Warwick,NY,10990
101,Abbey Wright Brewing/Valley Inn,204 Valley Street,Williamsport,PA,17702
102,Allentown Brew Works,814 W Hamilton St,Allentown,PA,18101
103,Appalachian Brewing Company,50 N. Cameron St.,Harrisburg,PA,17110
104,Barley Creek Brewing,RR 1 Box 185,Tannersville,PA,18372
105,Bavarian Barbarian Brewing Company,429 W. 3rd St,Williamsport,PA,17701
106,Bethlehem Brew Works,569 Main St,Bethlehem,PA,18018
107,Bube's Brewery,102 North Market Street,Mount Joy,PA,17552
108,Bullfrog Brewery,231 W. Fourth Street,Williamsport,PA,17701
109,Copper Kettle Brewery,339 Fairground Rd,Millmont,PA,17845
110,Crabby Larry's Brewpub Steak & Crab House,237 West Butler Avenue,Chalfont,PA,18914
111,Dock Street Beer,701 S. 50th Street,West Philly,PA,19143
112,East End Brewing Company,6923 Susquehanna St.,Pittsburgh,PA,15208
113,Elk Creek Cafe and Aleworks,100 West Main Street PO Box 432,Millheim,PA,16854
114,Erie Brewing Company,1213 Veshecco Drive,Erie,PA,16501
115,Independence Brew Pub,1150 Filbert Street,Philadelphia,PA,19107
116,Iron City Brewing Co.,3340 Liberty Ave.,Pittsburgh,PA,15201
117,JoBoy's Brew Pub,87 Doe Run Rd,Manheim,PA,17545
118,Lancaster Brewing Co.,302 N. Plum St.,Lancaster,PA,17602
119,Latrobe Brewing,,Latrobe,PA,
120,Legacy Brewing Co.,545 Canal Street,Reading,PA,19602
121,Lion Brewery Inc.,700 North Pennsylvania Blvd.,Wilkes Barre,PA,18705
122,Manayunk Brewery and Restaurant,4120 Main Street,Philadelphia,PA,19127
123,Marzoni's Brick Oven & Brewing Co,165 Patchway Road,Duncansville,PA,16635
124,McKenzie Brew House,451 Wilmington-West Chester Pike,Glen Mills,PA,19342
125,New Road Brewhouse,,Collegeville,PA,
126,Nodding Head Brewpub,1516 Sansom Street,Philadelphia,PA,19102
127,North Country Brewery,141 South Main Street,Slippery Rock,PA,16057
128,Otto's Pub and Brewery,2105 N. Atherton St.,State College,PA,16803
129,Penn Brewery,800 Vinial St.,Pittsburgh,PA,15212
130,Pennsylvania Brewing,800 Vinial Street,Pittsburgh,PA,15212
131,Philadelphia Brewing Co,2423 Amber St,Philadelphia,PA,19125
132,Porterhouse Restaurant and Brewpub,5775 Lower Mountain Road,Lahaska,PA,18931
133,Red Star Brewery & Grille,101 Ehalt St.,Greensburg,PA,15601
134,Rivertowne Pour House,312 Center Rd,Monroeville,PA,15146
135,Roy Pitz Brewing Company,140 North Third Street,Chambersburg,PA,17201
136,Selin's Grove Brewing Co.,121 North Market St.,Selinsgrove,PA,17870
137,Sly Fox Brewhouse and Eatery - Phoenixville,519 Kimberton Road,Phoenixville,PA,19460
138,Sly Fox Brewhouse and Eatery - Royersford,312 North Lewis Road,Royersford,PA,19468
139,South County Brewing Co.,104 Mill St.,Fawn Grove,PA,17321
140,Spring House Brewing Company,2519 Main St.,Conestoga,PA,17516
141,Stoudt's Brewery,2800 North Reading Road,Adamstown,PA,19501
142,Straub Brewery,303 Sorg Street,St. Mary's,PA,15857
143,The Church Brew Works,3525 Liberty Avenue,Pittsburgh,PA,15201
144,Triumph Brewing of New Hope,400 Union Square,New Hope,PA,18938
145,Troegs Brewing,800 Paxton Street,Harrisburg,PA,17104
146,Union Barrel Works,6 N. Reamstown Road,Reamstown,PA,17567
147,Valley Forge Brewing,,Wayne,PA,
148,Victory Brewing,420 Acorn Lane,Downingtown,PA,19335
149,Voodoo Brewing Co. |LLC,215 1/5 Arch St.,Meadville,PA,16335
150,Wainwright Brewing,3410 Sassafras Street,Pittsburgh,PA,
151,Weyerbacher Brewing Company,905 Line Street,Easton,PA,18042
152,Yards Brewing,2439 Amber Street,Philadelphia,PA,19125
153,Yuengling & Son Brewing,310 Mill Creek Avenue,Pottsville,PA,17901
154,Capital City Brewing Company,1100 New York Ave | NW,Washington,DC,20005
155,DC Brau,3178-B Bladensburg Rd. NE,Washington,DC,20018
156,Dogfish Head Craft Brewery,6 Cannery Village Center,Milton,DE,19968
157,Iron Hill Brewery - Newark,147 East Main Street,Newark,DE,19711
158,Iron Hill Brewery - Wilmingon,620 South Madison Street,Wilmington,DE,19805
159,John Harvard's Brewhouse - Wilmington,,Wilmington,DE,
160,Old Dominion Brewing Co.,1284 McD Drive,Dover,DE,19901
161,Stewart's Brewing,219 Governor's Square,Bear,DE,19701
162,Baltimore-Washington Beer Works,P.O. Box 9829,Baltimore,MD,21284
163,Brewer's Art,1106 N. Charles St.,Baltimore,MD,21201
164,Brimstone Brewing,4607 Wedgewood Boulevard,Frederick,MD,20176
165,Clipper City Brewing Co.,4615-B Hollins Ferry Road,Baltimore,MD,21227
166,DeGroen's Grill,,Baltimore,MD,
167,Deep Creek Brewing,,McHenry,MD,
168,DuClaw,901 S. Bond St.,Baltimore,MD,21231
169,Eastern Shore Brewing,605 S. Talbot St.,St Michaels,MD,21663
170,Ellicott Mills Brewing,8308 Main Street,Ellicott City,MD,21043
171,Fordham Brewing,95 Cathedral Street | Suite 200,Annapolis,MD,21401
172,Frederick Brewing,4607 Wedgewood Boulevard,Frederick,MD,20176
173,Hook & Ladder Brewing Company,8113 Fenton St.,Silver Spring,MD,20910
174,Stillwater Artisanal Ales,,Baltimore,MD,
175,Tuppers Hop Pocket Ale,6404 Redwing Road,Bethesda,MD,20817
176,Wharf Rat,206 W. Pratt St.,Baltimore,MD,21201
177,White Marsh Brewing Company,8149 Honeygo Blvd,White Marsh,MD,21236
178,Wild Goose Brewery |,4607 Wedgewood Blvd.,Fredrick,MD,21703
179,Blacksburg Brewing Company,P.O. Box 315,Blacksburg,VA,24063
180,Capitol City Brewing #4,2700 South Quincy Street,Arlington,VA,22206
181,Founder's Restaurant & Brewing,,Alexandria,VA,
182,Main Street Beer Company #1,,Richmond,VA,
183,Richbrau Brewing Company,1214 East Cary St,Richmond,VA,23219
184,Sweet Water Tavern and Brewery,45980 Waterview Plaza,Sterling,VA,20121
185,Sweetwater Tavern - Centreville,14250 Sweetwater Lane,Centreville,VA,20121
186,Vintage 50 Restaurant and Brew Lounge,50 Catoctin Ct. NE #100,Leesburg,VA,20176
187,America's Brewing,205 North Broadway,Aurora,IL,60505
188,Bent River Brewing,1413 Fifth Avenue,Moline,IL,61265
189,Bibiana Brewing,,Urbana,IL,
190,Big Horn Brewing @ The RAM 2,700 North Milwaukee Avenue,Wheeling,IL,60090
191,Black Toad Brewing Company,Chicago IL 60612,Chicago,IL,
192,Blue Cat Brew Pub,113 18th Street,Rock Island,IL,61201
193,Carlyle Brewing,215 East State Street,Rockford,IL,61104
194,Columbia Bay Brewery Restaurant and Pub,,Lake Villa,IL,
195,Copper Dragon Brewing,,Carbondale,IL,62901
196,Crooked Waters Brewing,,Peoria,IL,
197,Cugino Brewing Company,1501 East Wilson,Batavia,IL,60510
198,Emmett's Tavern and Brewery,128 West Main Street,West Dundee,IL,60118
199,Flatlander's Restaurant & Brewery,200 Village Green,Lincolnshire,IL,60069
200,Flossmoor Station Brewery,1035 Sterling Avenue,Flossmoor,IL,60422
201,Founders Hill Brewing,,Downers Grove,IL,
202,Glen Ellyn Sports Brew,,Glen Ellyn,IL,
203,Golden Prairie Brewing,2536 North Elston Avenue,Chicago,IL,60647
204,Goose Island Beer Company - Clybourn,1800 North Clybourn Avenue,Chicago,IL,60614
205,Goose Island Beer Company - Fulton Street,1800 West Fulton Street,Chicago,IL,60612
206,Govnor's Public House,220 North Randall Road,Lake In The Hills,IL,60156
207,Half Acre Beer Company,4257 North Lincoln Avenue,Chicago,IL,60618
208,Illinois Brewing,102 North Center Street #111,Bloomington,IL,61701
209,Metropolitan Brewing,5121 N Ravenswood Ave |,Chicago,IL,60640
210,Mickey Finn's Brewery,412 North Milwaukee Avenue,Libertyville,IL,60048
211,Millrose Brewing,45 South Barrington Road,South Barrington,IL,60010
212,O'Grady's Brewery and Pub #1,,Arlington Heights,IL,
213,Onion Pub & Brewery,22221 Pepper Road,Lake Barrington,IL,60010
214,Piece,1927 West North Avenue,Chicago,IL,60622
215,Pizza Beer,5N404 Harvest Lane,St Charles,IL,60175
216,Prairie Rock Brewing - Elgin,127 South Grove Avenue,Elgin,IL,60120
217,Revolution Brewing,2323 N Milwaukee Ave,Chicago,IL,60647
218,River West Brewing,,Chicago,IL,
219,Rock Bottom Restaurant & Brewery - Chicago,1 West Grand Avenue,Chicago,IL,60610
220,Taylor Brewing,717 East Butterfield Road,Lombard,IL,60148
221,Two Brothers Brewing,30 Butterfield Road,Warrenville,IL,60555
222,Weinkeller Brewery - Berwyn,,Berwyn,IL,
223,Wild Onion Brewing,,Lake Barrington,IL,
224,Aberdeen Brewing,210 Aberdeen Dr.,Valparaiso,IN,
225,Back Road Brewery,310 Perry Street,LaPorte,IN,46350
226,Barley Island Brewing,639 Conner Street,Noblesville,IN,46060
227,Bloomington Brewing Company,1795 E 10th St |,Bloomington,IN,47402
228,Broad Ripple Brewing,842 East 65th Street,Indianapolis,IN,46220
229,Circle V Brewing,,Indianapolis,IN,
230,Duneland Brewhouse Pub and Restaurant,,Michigan City,IN,46360
231,Lafayette Brewing,622 Main Street,Lafayette,IN,47901
232,Mad Anthony Brewing,2002 Broadway,Fort Wayne,IN,46802
233,Mishawaka Brewing,3703 North Main Street,Mishawaka,IN,46545
234,New Albanian Brewing,3312 Plaza Drive,New Albany,IN,47150
235,Oaken Barrel Brewing,50 North Airport Parkway,Greenwood,IN,46143
236,Oyster Bar Bistro and Brewery,,Fort Wayne,IN,46825
237,Three Floyds Brewing,9750 Indiana Parkway,Munster,IN,46321
238,Upland Brewing,350 West Eleventh Street,Bloomington,IN,47404
239,Arcadia Brewing,103 West Michigan Avenue,Battle Creek,MI,49017
240,Atwater Block Brewing,237 Joseph Campau Street,Detroit,MI,48207
241,Bad Frog Brewery Company,,Rose City,MI,
242,Bell's Brewery Inc.,8938 Krum Ave.,Galesburg,MI,49053
243,Big Buck Brewery,550 South Wisconsin Avenue,Gaylord,MI,49735
244,Big Buck Brewery and Steakhouse #2,,Grand Rapids,MI,
245,Bonfire Brewery,,Northville,MI,
246,Brewery Vivant,925 Cherry Street SE,Grand Rapids,MI,49506
247,Dark Horse Brewing Co.,511 S. Kalamazoo Ave.,Marshall,MI,49068
248,Dragonmead Microbrewery,14600 East Eleven Mile Road,Warren,MI,48089
249,Founders Brewing,235 Grandville Avenue SW,Grand Rapids,MI,49503
250,Grizzly Peak Brewing,120 West Washington Street,Ann Arbor,MI,48104
251,Hereford & Hops Restaurant and Brewpub #1,624 Ludington Street,Escanaba,MI,49829
252,Jasper Ridge Brewery,1075 Country Lane,Ishpeming,MI,49849
253,Jolly Pumpkin Artisan Ales,3115 Broad Street,Dexter,MI,48130
254,Kalamazoo Brewing,355 East Kalamazoo Avenue,Kalamazoo,MI,49007
255,Kuhnhenn Brewing,5919 Chicago Road,Warren,MI,48092
256,Marquette Harbor Brewery and Restaurant,119 South Front Street,Marquette,MI,49855
257,Michigan Brewing,1093 Highview Drive,Webberville,MI,48892
258,New Holland Brewing Company,66 East Eighth Street,Holland,MI,49423
259,Old Hat Brewery,114 North Main Street,Lawton,MI,49065
260,Olde Peninsula Brewpub and Restaurant,200 East Michigan Avenue,Kalamazoo,MI,49007
261,Roffey Brewery,,Holland,MI,
262,Short's Brewing Company,121 N. Bridge Street,Bellaire,MI,49615
263,Stoney Creek Brewing Company,237 Joseph Campau,Detroit,MI,48207
264,Sullivan's Black Forest Brew Haus & Grill,281 Heinlein Strasse,Frankenmuth,MI,48734
265,The Livery,190 5th Street,Benton Harbor,MI,49022
266,The Round Barn Winery & Brewery,10983 Hills Road,Baroda,MI,49101
267,Traffic Jam and Snug,4268 Second Street,Detroit,MI,48201
268,Walldorff Brew Pub,105 East State Street,Hastings,MI,49508
269,August Schell Brewing,1860 Schell Road,New Ulm,MN,56073
270,Backwater Brewing,1429 West Service Drive,Winona,MN,55987
271,Bandana Brewery,,Mankato,MN,
272,Barley John's Brewpub,781 Old Highway 8 SW,New Brighton,MN,55112
273,Brauhaus Brew Hall,111 Main Street,Lucan,MN,56255
274,Cold Spring Brewing,219 Red River Avenue North,Cold Spring,MN,56320
275,FINNEGANS,619 10th St. South | Suite 100,Minneapolis,MN,55404
276,Fitger's Brewhouse | Brewery and Grill,600 East Superior Street,Duluth,MN,55804
277,Flat Earth Brewing Company,2035 Benson Avenue,St. Paul,MN,55116
278,Glacial Lakes Brewing,,New York Mills,MN,
279,Granite City Food & Brewery - Saint Cloud,3945 Second Street South,Saint Cloud,MN,56301
280,Great Waters Brewing Company,426 St.Peter Street,Saint Paul,MN,55102
281,Green Mill Brewing - Saint Paul,57 Hamline Avenue South,Saint Paul,MN,55105
282,Herkimer Pub & Brewery,2922 Lyndale Avenue South,Minneapolis,MN,55408
283,James Page Brewing,1500 Jackson Street,Minneapolis,MN,55413
284,Lake Superior Brewing,2711 West Superior Street,Duluth,MN,55806
285,Lift Bridge Brewery,,Stillwater,MN,
286,Minneapolis Town Hall Brewery,1430 Washington Avenue South,Minneapolis,MN,55454
287,Minnesota Brewing,,Saint Paul,MN,
288,O'Gara's Bar & Grill,146 Snelling Avenue North,Saint Paul,MN,55104
289,O'Hara's Brewpub and Restaurant,,Saint Cloud,MN,
290,Rock Bottom Restaurant & Brewery - Minneapolis,800 LaSalle Plaza,Minneapolis,MN,55402
291,Sherlock's Home,,Minnetonka,MN,
292,Summit Brewing,910 Montreal Circle,Saint Paul,MN,55102
293,Surly Brewing,4811 Dusharme Drive,Brooklyn Center,MN,55429
294,Tunner's Guild Brewing Systems,,Saint Paul,MN,
295,Water Tower Brewing,,Eden Prairie,MN,55344
296,Barley's #2 Smokehouse and Brewpub,1130 Dublin Road,Columbus,OH,43215
297,Barley's Brewing #1,467 North High Street,Columbus,OH,43215
298,Barrel House Brewing Co.,544B W. Liberty St.,Cincinnati,OH,45214
299,Brew Kettle Taproom & Smokehouse BOP,8377 Pearl Road,Strongsville,OH,44136
300,Cleveland ChopHouse and Brewery,824 West St.Clair Avenue,Cleveland,OH,44113
301,Columbus Brewing Company,525 Short St.,Columbus,OH,43215
302,Crooked River Brewing,,Cleveland,OH,
303,Devil Mountain Brewing,,Cincinnati,OH,
304,Diamondback Brewery,,Cleveland,OH,
305,Frontwaters Restaurant and Brewing,,Marblehead,OH,
306,Great Lakes Brewing,2516 Market Avenue,Cleveland,OH,44113
307,Hoppin Frog Brewery,1680-F East Waterloo Rd.,Akron,OH,44306
308,Hudepohl-Schoenling Brewing,10921 Reed Hartman Highway | Suite 329,Cincinnati,OH,45242
309,Listermann Brewing Company,1621 Dana Ave.,Cincinnati,OH,45212
310,Mad Crab Restaurant and Brewery,,Strongsville,OH,
311,Maumee Bay Brewing,27 Broadway,Toledo,OH,43602
312,Ohio Brewing,,Niles,OH,
313,Rocky River Brewing,21290 Center Ridge Road,Rocky River,OH,44116
314,Thirsty Dog Brewing,529 Grant St. Suite B,Akron,OH,44311
315,Watson Brothers Brewhouse,,Blue Ash,OH,
316,Western Reserve Brewing,,Cleveland,OH,
317,Willoughby Brewing,4057 Erie Street,Willoughby,OH,44094
318,Ale Asylum,3698 Kinsman Blvd,Madison,WI,53704
319,Angelic Brewing,,Madison,WI,53703
320,Appleton Brewing,,Appleton,WI,
321,BT McClintic Beer Company,,Beloit,WI,
322,Bellows Brew Crew,,Watertown,WI,
323,BluCreek Brewing Company,2605 South Stoughton Road,Madison,WI,53716
324,Brewery Creek Brewing,23 Commerce Street,Mineral Point,WI,53565
325,Brewmasters Restaurant and Brewery South,,Kenosha,WI,
326,Brown Street Brewery,16 North Brown Street,Rhinelander,WI,54501
327,Capital Brewery,7734 Terrace Avenue,Middleton,WI,53562
328,Central Waters Brewing Company,351 Allen Street,Amherst,WI,54406
329,Cherryland Brewing,,Sturgeon Bay,WI,
330,City Brewing Company |,925 South Third Street,La Crosse,WI,54601
331,Corner Pub,100 Main Street,Reedsburg,WI,53959
332,Courthouse Pub,1001 South Eighth Street,Manitowoc,WI,54220
333,Delafield Brewhaus,3832 Hillside Drive,Delafield,WI,53018
334,Denmark Brewing,,Denmark,WI,
335,Egan Brewing,,De Pere,WI,
336,EndeHouse Brewery and Restaurant,,Reedsburg,WI,
337,Esser's Cross Plains Brewery,2109 Hickory Street,Cross Plains,WI,53528
338,Fauerbach Brewing Company,1714 Camus Lane,Madison,WI,53705
339,Fox River Brewing #1,1501 Arboretum Drive,Oshkosh,WI,54901
340,Fratellos Restaurant and Brewery,4301 West Wisconsin,Appleton,WI,54915
341,G. Heileman Brewing,,La Crosse,WI,
342,Gray Brewing,2424 West Court Street,Janesville,WI,53545
343,Great Dane Pub and Brewing #1,123 East Doty Street,Madison,WI,53703
344,Great Dane Pub and Brewing #2,2980 Cahill Main,Fitchburg,WI,53711
345,Green Bay Brewing,313 Dousman Street,Green Bay,WI,54303
346,Grumpy Troll Restaurant and Brewery,105 South Second Street,Mount Horeb,WI,53572
347,Harbor City Brewing,535 West Grand Avenue,Port Washington,WI,53074
348,Hereford & Hops Steakhouse and Brewpub #3,2201 Sherman Street,Wausau,WI,54401
349,Hops Haven Brew Haus,1327 North 14th Street,Sheboygan,WI,53081
350,JT Whitney's Brewpub and Eatery,674 South Whitney Way,Madison,WI,53711
351,Jacob Leinenkugel Brewing Company,1 Jefferson Avenue,Chippewa Falls,WI,54729
352,Keg Microbrewery & Restaurant,,Stevens Point,WI,
353,Lake Louie Brewing,7556 Pine Road,Arena,WI,53503
354,Lakefront Brewery,1872 North Commerce Street,Milwaukee,WI,53212
355,Legends Brewhouse & Eatery of Green Bay,2840 Shawano Avenue,Green Bay,WI,54313
356,Loaf and Stein Brewing,,Eagle River,WI,
357,Logjam Microbrewery,B-4864 Cty Rd F,Unity,WI,54488
358,Mambo Beer,10920 North Port Washington Road,Mequon,WI,53092
359,Mickey's Brewing Co.,,Milwaukee,WI,
360,Miller Brewing,3939 W. Highland Blvd,Milwaukee,WI,53208
361,Milwaukee Ale House,233 North Water Street,Milwaukee,WI,53202
362,Minhas Craft Brewery,1208 14th Avenue,Monroe,WI,53566
363,Minocqua Brewing Company,238 Lake Shore Drive,Minocqua,WI,54548
364,Moosejaw Pizza & Dells Brewing Company,110 Wisconsin Dells Parkway South,Wisconsin Dells,WI,53965
365,New Glarus Brewing Company,2400 State Highway 69,New Glarus,WI,53574
366,Nicolet Brewing,,Florence,WI,
367,Northwoods Brewpub Grill,3560 Oakwood Mall Drive,Eau Claire,WI,54701
368,Oconomowoc Brewing,,Oconomowoc,WI,
369,Onopa Brewing,,Milwaukee,WI,
370,Oso,1812 Post Road,Plover,WI,54467
371,Pearl Street Brewery,1401 Saint Andrew Street,La Crosse,WI,54603
372,Port Washington Brewing,,Port Washington,WI,53074
373,Pumphouse Pizza and Brewing,,Lake Delton,WI,
374,Rail House Restaurant and Brewpub,2029 Old Peshtigo Road,Marinette,WI,54143
375,Randy's Fun Hunters Brewery Restaurant and Banquet Center,841 East Milwaukee Street,Whitewater,WI,53190
376,Remington Watson Smith Brewing,,Waukesha,WI,
377,Rock Bottom Restaurant & Brewery - Milwaukee,740 North Plankinton Avenue,Milwaukee,WI,53203
378,Rothaus Brauerei,,Hartford,WI,
379,Rowland's Calumet Brewery,25 North Madison St,Chilton,WI,53014
380,Rush River Brewing,990 Antler Court,River Falls,WI,54022
381,Sand Creek Brewing Company,320 Pierce St,Black River Falls,WI,54615
382,Shipwrecked Brew Pub,7791 Egg Harbor Road,Egg Harbor,WI,54209
383,Slab City Brewing,,Bonduel,WI,
384,South Shore Brewery,808 West Main Street,Ashland,WI,54806
385,Sprecher Brewing,701 West Glendale Avenue,Glendale,WI,53209
386,Stevens Point Brewery,2617 Water Street,Stevens Point,WI,54481
387,Stone Cellar Brewpub & Restaurant,1004 South Olde Oneida,Appleton,WI,54915
388,Stout Brothers Public House,,Milwaukee,WI,
389,Sturgeon Bay Brewing,,Sturgeon Bay,WI,54235
390,Tap Room Brewing Company,,La Crosse,WI,
391,Titletown Brewing,200 Dousman Street,Green Bay,WI,54303
392,Twin Ports Brewing,,Superior,WI,
393,Tyranena Brewing,1025 Owen Street,Lake Mills,WI,53551
394,Viking Brewing,234 Dallas Street West,Dallas,WI,54733
395,Water Street Brewery,1101 North Water Street,Milwaukee,WI,53202
396,Water Street Lake Country,3191 Golf Road,Delafield,WI,53018
397,White Winter Winery,7665 US Highway 2,Iron River,WI,54847
398,William Kuether Brewing,,Clear Lake,WI,
399,Wisconsin Brewing,,Wauwatosa,WI,
400,Bricktown Brewery,299 Main Street,Dubuque,IA,52001
401,Cedar Brewing,,Cedar Rapids,IA,
402,Court Avenue Brewing,309 Court Avenue,Des Moines,IA,50309
403,Dubuque Brewing and Bottling,,Dubuque,IA,
404,Firehouse Brewery & Restaurant,,Red Oak,IA,
405,Fitzpatrick's Brewing,,Iowa City,IA,
406,Front Street Brewery,208 East River Drive,Davenport,IA,52801
407,Millstream Brewing,835 48th Avenue,Amana,IA,52203
408,Olde Main Brewing,316 Main Street,Ames,IA,50010
409,Raccoon River Brewing,200 North Tenth Street,Des Moines,IA,50309
410,Stone City Brewing,,Solon,IA,
411,Upper Mississippi Brewing,,Clinton,IA,
412,Free State Brewing,636 Massachusetts,Lawrence,KS,66044
413,Little Apple Brewing,1110 Westloop Center,Manhattan,KS,66502
414,Pony Express Brewing,,Olathe,KS,
415,Tallgrass Brewing Co.,8845 Quail Lane,Manhattan,KS,66502
416,Amerisports Brew Pub,8201 NE Birmingham Road,Kansas City,MO,64161
417,Anheuser-Busch,One Busch Place,Saint Louis,MO,63118
418,Augusta Brewing,5221 Water Street,Augusta,MO,63332
419,Bard's Tale Beer Company,211 NW Ward Road,Lee's Summit,MO,
420,Boulevard Brewing Company,2501 Southwest Boulevard,Kansas City,MO,64108
421,Dirt Cheap Cigarettes and Beer,895 Bolger Court,Fenton,MO,63026
422,Flat Branch Pub & Brewing,115 S. Fifth St.,Columbia,MO,65201
423,McCoy's Public House and Brewkitchen,4057 Pennsylvania Avenue,Kansas City,MO,64111
424,O'Fallon Brewery,26 West Industrial Drive,O'Fallon,MO,63366
425,Route 66 Brewery,,Saint Louis,MO,
426,Saint Louis Brewery / Schlafy Tap Room,2100 Locust Street,Saint Louis,MO,63103
427,Springfield Brewing,305 South Market Street,Springfield,MO,65806
428,The St. Louis Brewrey,2100 Locust Street,St. Louis,MO,63103
429,Trailhead Brewing Company,921 South Riverside Drive,Saint Charles,MO,63301
430,Asheville Pizza and Brewing Co.,675 Merrimon Avenue,Asheville,ND,28804
431,Aviator Brewing Company,209 Technology Park Lane,Fuquay Varina,ND,27526
432,Big Boss Brewing Company,1249-A Wicker Drive,Raleigh,ND,27604
433,Carolina Beer Company,110 Barley Park Lane,Mooresville,ND,28115
434,Carolina Brewery,460 West Franklin Street,Chapel Hill,ND,27516
435,Duck-Rabbit Craft Brewery,4519 W. Pine Street,Farmville,ND,27828
436,First Coast Brewing,,Wilmington,ND,
437,Foothills Brewing Company,638 W. 4th Street,Winston-Salem,ND,27101
438,Greenshields Brewery and Pub,,Raleigh,ND,
439,Ham's Restaurant and Brewhouse,701 Evans Street,Greenville,ND,27834
440,Highland Brewing Company,12 Old Charlotte Highway,Asheville,ND,28803
441,Mash House Restaurant and Brewery,4150 Sycamore Dairy Road,Fayetteville,ND,28303
442,Pinehurst Village Brewery,,Aberdeen,ND,
443,Red Oak Brewery,6901 Konica Drive,Whitsett,ND,27377
444,Steve and Clark's Brew Pub and Sausage Co. #2,,Durham,ND,
445,Top of the Hill Restaurant and Brewery,101 East Franklin Street,Chapel Hill,ND,27514
446,Weeping Radish Restaurant and Brewery - Manteo,525 N Virginia Dare Road,Manteo,ND,27954
447,Wilmington Brewing,,Wilmington,ND,
448,Aksarben Brewing (BOP),11337 Davenport St.,Omaha,NE,68130
449,Breckenridge BBQ of Omaha,,Omaha,NE,
450,Copper Eagle Brewing,,Grand Island,NE,
451,Crane River Brewpub and Cafe,,Lincoln,NE,
452,Empyrean Brewing Company,729 Q Street,Lincoln,NE,68508
453,Gottberg Brew Pub,2804 13th Street,Columbus,NE,68601
454,Granite City Food & Brewery - Omaha,1001 North 102nd Street,Omaha,NE,68114
455,Jaipur Restaurant and Brewpub,10922 Elm Street,Omaha,NE,68144
456,Jobber's Canyon Restaurant & Brewery,,Omaha,NE,
457,Murphy's Wagon Wheel,107 North Lincoln Avenue,Hastings,NE,68901
458,Nebraska Brewing Company,7474 Towne Center Parkway #101,Papillion,NE,68046
459,Platte Valley Brewing,14 East Railroad,Kearney,NE,68847
460,Spilker Ales,300 West Fourth Street,Cortland,NE,68331
461,Thunderhead Brewery,18 East 21st Street,Kearney,NE,68847
462,Thunderhead Brewery #2,120 East Third Street,Grand Island,NE,68801
463,Upstream Brewing Company at Legacy,17070 Wright Plaza,Omaha,NE,68130
464,Upstream Brewing Old Market,514 South Eleventh Street,Omaha,NE,68102
465,Coach's Norman,102 West Main,Norman,OK,73069
466,Marshall Brewing Company,618 S. Wheeling Ave,Tulsa,OK,74104
467,Pete's Place,120 SW Eighth Street,Krebs,OK,74554
468,Firehouse Brewing,610 Main Street,Rapid City,SD,57701
469,Sioux Falls Brewing,,Sioux Falls,SD,
470,Diamond Bear Brewing Co.,323-C Cross Street,Little Rock,AR,72201
471,Beach Brewing,,Orlando,FL,
472,Charlie and Jake's Brewery and BBQ,6300 North Wickham Road #137,Melbourne,FL,32940
473,Cigar City Brewing,3924 West Spruce Street Suite A,Tampa,FL,33607
474,Florida Beer Company,2500 S. Harbor City Blvd.,Melbourne,FL,32901
475,Gordash Brewing Company,3804 S.W 30th Ave,Fort Lauderdale,FL,33312
476,Margaritaville Brewing Company,,Jacksonville,FL,32209
477,McGuire's Irish Pub and Brewery - Pensacola,600 East Gregory Street,Pensacola,FL,32501
478,Orlando Brewing,1301 Atlanta Avenue,Orlando,FL,32806
479,Saint Somewhere Brewing Company,1441 Savannah Ave Unit E,Tarpon Springs,FL,34689
480,Stroh Brewery Company,,Tampa,FL,
481,Tampa Bay Brewing,1812 North 15th Street,Tampa,FL,33605
482,Atlanta Brewing Company,2323 Defoor Hills Rd NW,Atlanta,GA,30318
483,Moon River Brewing Company,21 W. Bay St.,Savannah,GA,31401
484,New River Brewing,2015 Afond Court,Atlanta,GA,30341
485,Sweetwater Brewing - Atlanta,195 Ottley Drive,Atlanta,GA,30324
486,Terrapin Beer Company,196 Alps Road,Athens,GA,30606
487,Alltech's Lexington Brewing Company,401 Cross Street,Lexington,KY,40508
488,BBC Brewing Co. |,636 East Main Street,Louisville,KY,40202
489,Bluegrass Brewing Company | Inc.,3929 Shelbyville Rd.,Louisville,KY,40207
490,Brownings,401 East Main St.,Louisville,KY,40202
491,Cumberland Brewery,1576 Bardstown Rd,Louisville,KY,40205
492,Kentucky Hemp Beer Company,,Lexington,KY,
493,Oldenberg Brewery,,Fort Mitchell,KY,
494,Abita Brewing Company,PO Box 1510,Abita Springs,LA,70420
495,Crescent City Brewhouse,527 Decatur Street,New Orleans,LA,70130
496,Day Brewing,,Marrero,LA,
497,Dixie Brewing,2401 Tulane Avenue,New Orleans,LA,70119
498,Zea Rotisserie and Brewery,1525 St. Charles Avenue,New Orleans,LA,70130
499,Coast Brewing,,Biloxi,MS,
500,Lazy Magnolia Brewing Company,7030 Roscoe Turner Rd,Kiln,MS,39556
501,Catawba Valley Brewing Company,P.O. Box 1154,Glen Alpine,NC,28628
502,Wedge Brewery,125B Roberts St,Asheville,NC,28801-3128
503,Blue Ridge Brewing,217 North Main Street,Greenville,SC,29601
504,Liberty Steakhouse and Brewery,1321 Celebrity Circle,Myrtle Beach,SC,29577
505,Palmetto Brewing,289 Huger Street,Charleston,SC,29403
506,Quigleys,257 Willbrook Blvd,Pawleys Island,SC,29585
507,Southend Brewery and Smokehouse - Charleston,161 East Bay Street,Charleston,SC,29401
508,T-Bonz Gill | Grill and Brewery,1028 Johnny Dodds Boulevard,Mount Pleasant,SC,29464
509,Thomas Creek Brewery,2054 Piedmont Highway,Greenville,SC,29605
510,Blackstone Restaurant & Brewery,1918 West End Avenue,Nashville,TN,37203
511,Boscos Memphis Brewing,,Germantown,TN,
512,Calhoun's Microbrewery,6515 Kingston Pike,Knoxville,TN,37919
513,Smoky Mountain Brewing,424 South Gay Street,Knoxville,TN,37902
514,Yazoo Brewing,910 Division St,Nashville,TN,37203
515,Barley Brothers Brewery and Grill,1425 McCulloch Boulevard,Lake Havasu City,AZ,86403
516,Flagstaff Brewing,16 East Route 66,Flagstaff,AZ,86001
517,Four Peaks Brewing,1340 East Eighth Street #103,Tempe,AZ,85281
518,Leinenkugel's Ballyard Brewery,,Phoenix,AZ,
519,Mogollon Brewing Company,4366 Huntington Dr,Flagstaff,AZ,86001
520,Mudshark Brewing,210 Swanson Avenue,Lake Havasu City,AZ,86403
521,Oak Creek Brewery,2050 Yavapai Dr,Sedona,AZ,86336
522,Pinnacle Peak Patio Steakhouse & Microbrewery,10426 East Jomax Road,Scottsdale,AZ,85255
523,Prescott Brewing Company,130 W Gurley St,Prescott,AZ,86301
524,Rio Salado Brewing,,Tempe,AZ,
525,Sonoran Brewing Company,10426 East Jomax Road,Scottsdale,AZ,85255
526,Thunder Canyon Brewery,7401 North La Cholla Boulevard,Tucson,AZ,85741
527,Blue Corn Caf and Brewery - Albuquerque,,Albuquerque,NM,
528,Chama River Brewing,4939 Pan American Freeway NE,Albuquerque,NM,87109
529,Dry Gulch Brewing,,Albuquerque,NM,
530,High Desert Brewing Co.,1201 W. Hadley Ave.,Las Cruces,NM,88005
531,Marble Brewery,111 Marble Ave NW,Albuquerque,NM,87102
532,Milagro Brewery and Grill,,Bernalillo,NM,
533,Santa Fe Brewing Company,35 Fire Place,Santa Fe,NM,87508
534,Second Street Brewery,1814 Second Street,Santa Fe,NM,87505
535,Socorro Springs Brewing,1012 North California Street,Socorro,NM,87801
536,Barley's Casino & Brewing Company,4500 East Sunset Road #30,Henderson,NV,89014
537,Big Dog's Brewing Company,4543 North Rancho Road,Las Vegas,NV,89130
538,Boiler Room Brewpub,2100 Casino Drive,Laughlin,NV,89029
539,Chicago Brewing,2201 South Fort Apache Road,Las Vegas,NV,89117
540,Great Basin Brewing Company,846 Victorian Ave,Sparks,NV,89431
541,Main Street Station Casino | Brewery and Hotel,200 North Main Street,Las Vegas,NV,89101
542,Monte Carlo Casino and Brewpub,,Las Vegas,NV,89109
543,Tenaya Creek Restaurant and Brewery,3101 North Tenaya Way,Las Vegas,NV,89128
544,(512) Brewing Company,407 Radam | F200,Austin,TX,78745
545,Celis Brewery,,Austin,TX,
546,Hoffbrau Steaks Brewery #1,,Addison,TX,
547,Hoffbrau Steaks Brewery #2,,Dallas,TX,
548,Independence Brewing Co,3913 Todd Lane #607,Austin,TX,78744
549,Live Oak Brewing,3301-B East Fifth Street,Austin,TX,78702
550,Main Street Brewing,,Dallas,TX,
551,Old City Brewing,603 West 13th Street #1A-345,Austin,TX,78701
552,Pabst Brewing Company,PO Box 1661,San Antonio,TX,78296
553,Pete's Brewing,14800 San Pedro Avenue,San Antonio,TX,78232
554,Rahr & Sons Brewing Company,701 Galveston Ave,Fortworth,TX,76104
555,Real Ale Brewing Company,231 San Saba Court,Blanco,TX,78606
556,Routh Street Brewery and Grille,,Dallas,TX,75201
557,Saint Arnold Brewing,2522 Fairway Park Drive,Houston,TX,77092
558,Salado Creek Brewing Company,,San Antonio,TX,
559,Schooner Brewery,,Dallas,TX,
560,Southern Star Brewing Company,1207 N. FM 3083 E.,Conroe,TX,77303
561,Spoetzl Brewery,603 East Brewery Street,Shiner,TX,77984
562,Steel Brewing,,Longview,TX,
563,TwoRows Restaurant & Brewery - Dallas,5500 Greenville Avenue #1300,Dallas,TX,75206
564,Yegua Creek Brewing - Dallas,2920 North Henderson Ave,Dallas,TX,75206
565,Eddie McStiff's Brewpub,57 South Main Street,Moab,UT,84532
566,Hoppers Seafood & Grill,890 East Fort Union Boulevard,Midvale,UT,84047
567,Moab Brewery,686 South Main Street,Moab,UT,84532
568,Park City Brewing,375 West 910 South,Heber City,UT,84032
569,Rivers Effortless Dining,,Salt Lake City,UT,84121
570,Salt Lake Brewing - Squatters,147 West Broadway,Salt Lake City,UT,84101
571,Uinta Brewing Compnay,1722 South Fremont Drive (2375 West),Salt Lake City,UT,84104
572,Utah Brewers Cooperative,1763 South 300 West,Salt Lake City,UT,84115
573,Amicas Pizza | Microbrews and More,136 East Second Street,Salida,CO,81201
574,Aspen Brewing Company,555 North Mill Street,Aspen,CO,81611
575,Avery Brewing Company,5763 Arapahoe Avenue,Boulder,CO,80303
576,Backcountry Brewery,720 Main Street,Frisco,CO,80443
577,Blicks Brewing,,Colorado Springs,CO,
578,Boulder Beer Company,2880 Wilderness Place,Boulder,CO,80301
579,Breckenridge Brewery,471 Kalamath Street,Denver,CO,80204
580,Bristol Brewing,1647 South Tejon Street,Colorado Springs,CO,80906
581,Bull & Bush Pub & Brewery,4700 Cherry Creek Drive South,Denver,CO,80246
582,Carver Brewing Co.,1022 Main Ave.,Durango,CO,81301
583,Cheshire Cat Brewery,7803 Ralston Road,Arvada,CO,80002
584,Coors Brewing - Golden Brewery,311 Tenth Street,Golden,CO,80401
585,Crabtree Brewery,625 3rd St. #D,Greeley,CO,80631
586,Crested Butte Brewery &  Pub,226 Elk Avenue,Crested Butte,CO,81224
587,Denver ChopHouse and Brewery,1735 19th Street #100,Denver,CO,80202
588,Dillon Dam Brewery,100 Little Dam Road,Dillon,CO,80435
589,Dixon's Downtown Grill,,Denver,CO,80202
590,Dostal Alley,1 Dostal Alley,Central City,CO,80427
591,Estes Park Brewery,470 Prospect Village Dr.,Estes Park,CO,80517
592,Flying Dog Brewery,2401 Blake St.,Denver,CO,80205
593,Fort Collins Brewery,1900-B East Lincoln Avenue,Fort Collins,CO,80524
594,Glenwood Canyon Brewing Company,402 Seventh Street,Glenwood Springs,CO,81601
595,Golden City Brewery,920 Twelfth Street,Golden,CO,80401
596,Gore Range Brewery,105 Edwards Village Boulevard,Edwards,CO,81632
597,Grand Lake Brewing,915 Grand Avenue,Grand Lake,CO,80447
598,Great Divide Brewing,2201 Arapahoe Street,Denver,CO,80205
599,Great Northern Tavern and Brewery,,Keystone,CO,
600,HC Berger Brewing,,Fort Collins,CO,
601,Heavenly Daze Brewery and Grill,,Denver,CO,
602,Hops Grillhouse & Brewery - Cherry Creek,149 Steele Street,Denver,CO,80206
603,Hubcap Brewery and Kitchen,,Vail,CO,
604,Jarre Creek Ranch Brewing,,Castle Rock,CO,
605,Left Hand Brewing Company,1265 Boston Avenue,Longmont,CO,80501
606,Mill Steakhouse,5798 South Rapp Street,Littleton,CO,80120
607,Mountain Sun Pub & Brewery,1535 Pearl Street,Boulder,CO,80302
608,Namaqua Brewing,,Loveland,CO,
609,New Belgium Brewing,500 Linden Street,Fort Collins,CO,80524
610,Oasis Brewery Annex,,Boulder,CO,
611,Oasis Brewery and Restaurant,,Boulder,CO,
612,Odell Brewing,800 East Lincoln Avenue,Fort Collins,CO,80524
613,Oskar Blues Grill and Brew,303 Main Street,Lyons,CO,80540
614,Pint's Pub Brewery and Freehouse,211 West 13th Avenue,Denver,CO,80204
615,Pug Ryan's Steakhouse and Brewery,104 Village Place,Dillon,CO,80435
616,Pumphouse Brewery & Restaurant,540 Main Street,Longmont,CO,80501
617,RedFish New Orleans Brewhouse,2027 13th Street,Boulder,CO,80302
618,Rock Bottom Restaurant & Brewery - Denver,1001 16th Street #A-100,Denver,CO,80202
619,Rock Bottom Restaurant & Brewery - South Denver,9627 East County Line Road,Englewood,CO,80112
620,Rockyard Brewing,880 West Castleton Road,Castle Rock,CO,80109
621,SandLot Brewery at Coors Field,2145 Blake Street,Denver,CO,80205
622,Ska Brewing Company,545 Turner Drive,Durango,CO,81301
623,Steamworks Brewing - Durango,801 East Second Avenue,Durango,CO,81301
624,Tabernash Brewing,,Longmont,CO,
625,Tivoli Brewing,,Denver,CO,
626,Tommyknocker Brewery and Pub,1401 Miner Street,Idaho Springs,CO,80452
627,Trinity Brewing Company,1446 Garden of the Gods,Colorado Springs,CO,80907
628,Twisted Pine Brewing Company,3201 Walnut Street Ste A,Boulder,CO,80301
629,Union Colony Brewery,,Greeley,CO,
630,Walnut Brewery,1123 Walnut Street,Boulder,CO,80302
631,Wolf Tongue Brewery,35 E. First St.,Nederland,CO,
632,Wynkoop Brewing,1634 18th Street,Denver,CO,80202
633,Coeur d'Alene Brewing Company,209 Lakeside Avenue,Coeur d'Alene,ID,83814
634,Grand Teton Brewing #2,430 Old Jackson Highway,Victor,ID,83455
635,Idaho Brewing,,Idaho Falls,ID,
636,Laughing Dog Brewing,55 Emerald Industrial Park Road,Ponderay,ID,83852
637,Sockeye,3019 N Cole Rd,Boise,ID,83704
638,Tablerock,705 Fulton St,Boise,ID,83702
639,Bayern Brewing,1507 Montana Street,Missoula,MT,59801
640,Big Hole Brewing,401 East Main Street,Belgrade,MT,59714
641,Big Sky Brewing,5417 Trumpeter Way,Missoula,MT,59808
642,Kessler Brewing,,Helena,MT,
643,Lang Creek Brewry,655 Lang Creek Road,Marion,MT,59925
644,Lewis & Clark Brewing Company,939 Getchell Street,Helena,MT,59601
645,Lightning Boy Brewery,,Belgrade,MT,
646,Montana Brewing,113 North Broadway,Billings,MT,59101
647,Red Lodge Ales,417 North Broadway,Red Lodge,MT,59068
648,Spanish Peaks Brewing,Polson MT 59860,Polson,MT,
649,Wolf Pack Brewing,111 South Canyon Street,West Yellowstone,MT,59758
650,Yellowstone Valley Brewing,2123 1st Avenue North,Billings,MT,59101
651,Bottom's Up Brewing,402 West Pine Street,Pinedale,WY,82941
652,C.B. & Potts of Cheyenne,1650 Dell Range Boulevard,Cheyenne,WY,82001
653,Grand Teton Brewing #1,1295 North West Street,Wilson,WY,83014
654,Sanford's Grub and Pub,5 East Alger Street,Sheridan,WY,82801
655,Snake River Brewing,265 S. Millward,Jackson,WY,83001
656,Sweetwater Brewing - Casper,,Casper,WY,
657,Alaskan Brewing,5429 Shaune Drive,Juneau,AK,99801
658,Glacier Brewhouse,737 W. 5th Ave. | Suite 110,Anchorage,AK,99501
659,Great Bear Brewing,238 North Boundary Street,Wasilla,AK,99654
660,Midnight Sun Brewing Co.,8111 Dimond Hook Drive,Anchorage,AK,99507
661,Moose's Tooth Pub and Pizzeria,3300 Old Seward Highway,Anchorage,AK,99503
662,Railway Brewing,,Anchorage,AK,
663,Silver Gulch Brewing Company,2195 Old Steese Highway,Fox,AK,99708
664,Sleeping Lady Brewing Company,717 W. 3rd Ave,Anchorage,AK,99501
665,21st Amendment Brewery Cafe,563 Second Street,San Francisco,CA,94107
666,AleSmith Brewing,9368 Cabot Drive,San Diego,CA,92126
667,Alpine Beer Company,2351 Alpine Boulevard,Alpine,CA,91901
668,American River Brewing,,Auburn,CA,
669,Anchor Brewing,1705 Mariposa Street,San Francisco,CA,94107
670,Anderson Valley Brewing,17700 Boonville Rd,Boonville,CA,95415
671,BJ's Restaurant and Brewery,600 Brea Mall,Brea,CA,
672,Ballast Point Brewing,5401 Linda Vista Road #406,San Diego,CA,92110
673,Beach Chalet Brewery,1000 Great Highway,San Francisco,CA,94121
674,Bear Republic Brewery,345 Healdsburg Avenue,Healdsburg,CA,95448
675,Beermann's Beerwerks BrewPub,,Lincoln,CA,
676,Bison Brewing,2598 Telegraph Avenue,Berkeley,CA,94704
677,Bonaventure Brewing Co,404 South Figueroa Street #418,Los Angeles,CA,90071
678,Bootleggers Steakhouse and Brewery,,Bakersfield,CA,
679,Brew Makers,,Mountain View,CA,
680,Brewpub-on-the-Green,,Fremont,CA,
681,Bulldog Brewing,,Fresno,CA,
682,Butte Creek Brewing,945 West Second Street,Chico,CA,95928
683,Butterfield Brewing #1,,Fresno,CA,
684,CJ's Brewery & Grill,,La Jolla,CA,
685,California Cider Company,,San Rafael,CA,
686,Callahan's Pub and Brewery,8280-A Mira Mesa Boulevard,San Diego,CA,92126
687,Carmel Brewing,,Salinas,CA,
688,Coast Range Brewing,7050 Monterey Street,Gilroy,CA,95020
689,Coastal Fog Brewing,,Concord,CA,
690,Coronado Brewing Company,170 Orange Avenue,Coronado,CA,92118
691,Craftsman Brewing,1260 Lincoln Avenue #100,Pasadena,CA,91103
692,Del Mar Stuft Pizza and Brewing,,San Diego,CA,
693,Dempsey's Restaurant & Brewery,50 East Washington Street,Petaluma,CA,94952
694,Devil's Canyon,,Belmont,CA,
695,Drake's Brewing,1933 Davis Street #177,San Leandro,CA,94577
696,EJ Phair Brewing Company and Alehouse,2151 Salvio Street,Concord,CA,94520
697,Eel River Brewing,1777 Alamar Way,Fortuna,CA,95540
698,El Toro Brewing Company,17605 Monterey Road,Morgan Hill,CA,95037
699,Elk Grove Brewery & Restaurant,9085 Elk Grove Boulevard,Elk Grove,CA,95624
700,Emery Pub,,Emeryville,CA,
701,English Ales Brewery,223 Reindollar Avenue,Marina,CA,93933
702,Etna Brewing,131 Callahan,Etna,CA,96027
703,Faultline Brewing #1,1235 Oakmead Parkway,Sunnyvale,CA,94086
704,Faultline Brewing #2,,Walnut Creek,CA,94596
705,Fifty Fifty Brewing Co.,11197 Brockway Road,Truckee,CA,96161
706,Firehouse Grill & Brewery,111 South Murphy Avenue,Sunnyvale,CA,94086
707,Firestone Walker Brewing Company,1400 Ramada Drive,Paso Robles,CA,93446
708,Golden Gate Park Brewery,,San Francisco,CA,
709,Golden Pacific Brewing,,Berkeley,CA,
710,Gordon Biersch Brewing,357 East Taylor Street,San Jose,CA,95112
711,Green Flash Brewing,1430 Vantage Court #104A,Vista,CA,92083
712,Grizzly Bay Brewing,,Suisun City,CA,
713,Half Moon Bay Brewing,390 Capistrano Road,Princeton by the Sea,CA,94019
714,HopTown Brewing,3015-D Hopyard Road,Pleasanton,CA,94588
715,Hoppy Brewing Company,6300 Folsom Boulevard,Sacramento,CA,95819
716,Hornsby's Pubdrafts Ltd.,600 Yosemite Boulevard,Modesto,CA,
717,Humboldt Brewing,856 10th Street,Arcata,CA,95521
718,Indian Wells Brewing,2565 North Highway 14,Inyokern,CA,93527
719,Iron Springs Pub & Brewery,765 Center Boulevard,Fairfax,CA,94930
720,Island Brewing Company,5049 Sixth Street,Carpinteria,CA,93013
721,Jack Russell Brewing,2380 Larsen Drive,Camino,CA,95709
722,Jack's Brewing,39176 Argonaut Way,Fremont,CA,94538
723,Jurupa Valley Brewing,,Riverside,CA,
724,Karl Strauss Brewery Gardens - Sorrento Mesa,9675 Scranton Road,San Diego,CA,92121
725,Kelmer's Brewhouse,,Santa Rosa,CA,
726,La Jolla Brew House,7536 Fay Avenue,La Jolla,CA,92037
727,La Jolla Brewing,,La Jolla,CA,
728,Lagunitas Brewing Company,1280 North McDowell Boulevard,Petaluma,CA,94954
729,Left Coast Brewing,1245 Puerta del Sol,San Clemente,CA,92673
730,Lost Coast Brewery,617 Fourth Street,Eureka,CA,95501
731,Mad River Brewing,195 Taylor Way,Blue Lake,CA,95525
732,Mad River Brewing Company,101 Taylor Way,Blue Lake,CA,95525
733,Magnolia Pub and Brewery,1398 Haight Street,San Francisco,CA,94117
734,Main Street Brewery,300 North Main Street,Corona,CA,92880
735,Mammoth Brewing,24 Lake Mary Road,Mammoth Lakes,CA,93546
736,Manhattan Beach Brewing,124 Manhattan Beach Boulevard,Manhattan Beach,CA,90266
737,Marin Brewing,1809 Larkspur Landing Circle,Larkspur Landing,CA,94939
738,Mendocino Brewing - Hopland,13351 Highway 101,Hopland,CA,95449
739,Mendocino Brewing - Ukiah,1601 Airport Road,Ukiah,CA,95482
740,Moonlight Brewing,PO Box 316,Fulton,CA,95439
741,Moylan's Brewery & Restaurant,15 Rowland Way,Novato,CA,94945
742,North Coast Brewing Company,455 North Main Street,Fort Bragg,CA,95437
743,Oggi's Pizza and Brewing - Vista,425 South Melrose Drive,Vista,CA,92083
744,On Tap Bistro & Brewery,,San Diego,CA,
745,PH Woods Diner and Brewery,23060 Alessandro Boulevard,Moreno Valley,CA,92553
746,Pacific Beach Brewhouse,,Pacific Beach,CA,
747,Pacific Coast Brewing,906 Washington Street,Oakland,CA,94607
748,Pizza Port Brewing - Solana Beach,135 North Highway 101,Solana Beach,CA,92075
749,Pleasanton Main Street Brewery,830 Main Street,Pleasanton,CA,94566
750,Port Brewing Company,155 Mata Way Suite 104,San Marcos,CA,92069
751,Pyramid Alehouse | Brewery and Restaurant - Berkeley,901 Gilman Street,Berkeley,CA,94710
752,ReaperAle,,Foothill Ranch,CA,
753,Red Kettle Brewing,,Encinitas,CA,
754,Rock Bottom Restaurant & Brewery - San Jose,1875 South Bascom Avenue #700,Campbell,CA,95008
755,Roost Brewery,200 East Campbell Avenue,Campbell,CA,95008
756,Ross Valley Brewing,,Fairfax,CA,
757,Rubicon Brewing,2004 Capitol Avenue,Sacramento,CA,95814
758,Russian River Brewing,725 Fourth Street,Santa Rosa,CA,95404
759,Sacramento Brewing Company,2713 El Paseo Lane,Sacramento,CA,95821
760,San Diego Brewing,10450-L Friars Road,San Diego,CA,92120
761,San Marcos Brewery & Grill,1080 West San Marcos Boulevard,San Marcos,CA,92069
762,Santa Barbara Brewing,501 State Street,Santa Barbara,CA,93101
763,Santa Cruz Brewing,,Santa Cruz,CA,
764,Santa Rosa Brewing,,Santa Rosa,CA,
765,Schooner's Grille & Brewery,4250 Lone Tree Way,Antioch,CA,94531
766,Seabright Brewery,519 Seabright Avenue #107,Santa Cruz,CA,95062
767,Sequoia Brewing Conoabt,777 East Olive Avenue,Fresno,CA,93728
768,Shmaltz Brewing Company,,San Francisco,CA,
769,Shmaltz Enterprises,3435 Cesar Chavez #227,San Francisco,CA,94110
770,Sierra Nevada Brewing Co.,1075 East 20th Street,Chico,CA,95928
771,Silverado Brewing,3020 St. Helena Highway North,Saint Helena,CA,94574
772,Six Rivers Brewery,1300 Central Avenue,McKinleyville,CA,95519
773,Snowshoe Brewing - Sonora,,Sonora,CA,
774,Speakeasy Ales and Lagers,1195-A Evans Avenue,San Francisco,CA,94124
775,Sports City Cafe & Brewery,,La Jolla,CA,
776,St. Stan's Brewing Co.,821 L Street,Modesto,CA,95354
777,Stone Brewing Co.,1999 Citracado Parkway,Escondido,CA,92029
778,Sudwerk Privatbrauerei Hbsch,2001 Second Street,Davis,CA,95616
779,Tailgate Beer,6648 Reservoir Ln,San Diego,CA,92155
780,Taylor's Restaurant and Brewery,,San Diego,CA,
781,The Bruery,715 Dunn Way,Placentia,CA,92870
782,The Hop Yard,Bollinger Canyon Rd.,San Ramon,CA,
783,The Lost Abbey,155 Mata Way Suite 104,San Marcos,CA,92069
784,Third Street Ale Works,610 Third Street,Santa Rosa,CA,95404
785,ThirstyBear Brewing,661 Howard Street,San Francisco,CA,94105
786,Tied House Cafe & Brewery - San Jose,65 North San Pedro,San Jose,CA,95110
787,Triple Rock Brewery,1920 Shattuck Avenue,Berkeley,CA,94704
788,Tustin Brewing,13011 Newport Avenue #100,Tustin,CA,92780
789,Ukiah Brewing,102 South State Street,Ukiah,CA,95482
790,Valley Brewing Company,1950 W. Fremont St.,Stockton,CA,95204
791,moylans Brewing company,,Novato,CA,
792,Ali`i Brewing,,Honolulu,HI,
793,Hapa*s Brew Haus and Restaurant,,Kihei,HI,
794,Kona Brewing,75-5629 Kuakini Highway,Kailua-Kona,HI,96740
795,Maui Brewing Co.,4405 Honoapiilani Highway #217,Maui,HI,96761
796,Mehana Brewing,275 East Kawili Street,Hilo,HI,96720
797,Big Aloha Brewery,580 North Nimitz Highway,Honolulu,HI,96817
798,Sharktooth Brewing,,Kahului,HI,
799,Trade Winds Brewing,,Wailuku,HI,
800,Alameda Brewhouse,4765 NE Fremont,Portland,OR,97213
801,BJ's Pizza | Grill | and Brewery - Jantzen Beach,12105 North Center Avenue,Portland,OR,97217
802,Bill's Tavern & Brewhouse,188 North Hemlock,Cannon Beach,OR,97110
803,Blitz-Weinhard Brewing,Portland OR 97209,Portland,OR,
804,BridgePort Brewing,1313 NW Marshall Street,Portland,OR,97209
805,Caldera Brewing,540 Clover Lane,Ashland,OR,97520
806,Deschutes Brewery,901 SW Simpson Avenue,Bend,OR,97702
807,Double Mountain Brewery & Taproom,8 Fourth Street,Hood River,OR,97031
808,Full Sail Brewing #1,506 Columbia Street,Hood River,OR,97031
809,Golden Valley Brewery and Pub,980 NE Fourth Street,McMinnville,OR,97128
810,Hair of the Dog Brewing,4509 SE 23rd Avenue,Portland,OR,97202
811,Hawks Brewing,,Roseburg,OR,97470
812,Hopworks Urban Brewery,2944 SE Powell Blvd,Portland,OR,97202
813,Main Street Alehouse,333 North Main Avenue,Gresham,OR,97030
814,Mia and Pia's Pizzeria and Brewhouse,3545 Summers Lane (restaurant),Klamath Falls,OR,97603
815,Ninkasi Brewing,272 Van Buren St,Eugene,OR,97402
816,Nor'Wester Brewery and Public House,,Portland,OR,
817,Oakshire,,Eugene,OR,
818,Oakshire,,Eugene,OR,
819,Oregon Trader Brewing,,Albany,OR,
820,Oregon Trail Brewery,341 SW Second Street,Corvallis,OR,97333
821,Pelican Pub & Brewery,33180 Cape Kiwanda Drive,Pacific City,OR,97135
822,Portland Brewing,2730 NW 31st Avenue,Portland,OR,97210
823,Raccoon Lodge and Brewpub / Cascade Brewing,7424 SW Beaverton-Hillsdale Hwy,Portland,OR,97225
824,Rogue Ales,2320 SE OSU Drive,Newport,OR,97365
825,Roots Organic Brewing,1520 SE Seventh Avenue,Portland,OR,97214
826,Saxer Brewing,,Lake Oswego,OR,
827,Siletz Roadhouse & Brewery,243 North Gaither Street,Siletz,OR,97380
828,Standing Stone Brewing Company,101 Oak Street,Ashland,OR,97520
829,Terminal Gravity Brewing,803 SE School Street,Enterprise,OR,97828
830,Umpqua Brewing,,Roseburg,OR,
831,White Oak Cider,18452 NE Ribbon Ridge Road,Newberg,OR,97132
832,Widmer Brothers Brewing,929 North Russell Street,Portland,OR,97227
833,Wild Duck Brewing,,Eugene,OR,
834,Wild River Brewing and Pizza - Cave Junction,249 North Redwood Highway,Cave Junction,OR,97523
835,Yamhill Brewing,,Portland,OR,
836,Anacortes Brewing,320 Commercial Avenue,Anacortes,WA,98221
837,Baron Brewing Company,1605 S 93rd Building E Unit L,Seattle,WA,98108
838,Big Time Brewing,4133 University Way NE,Seattle,WA,98105
839,Boundary Bay Brewery and Bistro,1107 Railroad Avenue,Bellingham,WA,98227
840,Diamond Knot Brewery & Alehouse,621 Front Street,Mukilteo,WA,98275
841,Dick's Brewing,5945 Prather Road,Centralia,WA,98531
842,Eagle Brewing,625 Fourth Street,Mukilteo,WA,98275
843,Ellersick Brewing Big E Ales,5030 208th ST SW Ste. A,Lynnwood,WA,98036
844,Elliott Bay Brewery and Pub,4720 California Avenue SW,Seattle,WA,98116
845,Elysian Brewery & Public House,1221 East Pike Street,Seattle,WA,98122
846,Elysian Brewing - TangleTown,2106 North 55th Street,Seattle,WA,98103
847,Engine House #9,611 North Pine,Tacoma,WA,98406
848,Far West Ireland Brewing,,Redmond,WA,98052
849,Fish Brewing Company & Fish Tail Brewpub,515 Jefferson Street SE,Olympia,WA,98501
850,Flyers Restraunt and Brewery,32295 State Route 20,Oak Harbor,WA,98277
851,Hale's Ales #3,4301 Leary Way NW,Seattle,WA,98107
852,Harmon Brewing Company,1938 Pacific Avenue,Tacoma,WA,98402
853,Issaquah Brewhouse,35-C West Sunset Way,Issaquah,WA,98027
854,LaConner Brewing,117 South First Street,LaConner,WA,98257
855,Maritime Pacific Brewing,1514 NW Leary Way,Seattle,WA,98107
856,McMenamins Mill Creek,13300 Bothell-Everett Highway #304,Mill Creek,WA,98012
857,Mill Creek Brewpub,11 North Palouse,Walla Walla,WA,99362
858,Northwest Brewwrks,,Kirkland,WA,
859,Orchard Street Brewery,,Bellingham,WA,
860,Pacific Rim Brewing,9832 14th Avenue SW,Seattle,WA,98106
861,Pike Pub and Brewery,1415 First Avenue,Seattle,WA,98101
862,Pyramid Alehouse | Brewery and Restaurant - Seattle,1201 First Avenue South,Seattle,WA,98134
863,Pyramid Ales Brewery,91 S Royal Brougham Way,Seattle,WA,98134
864,Redhook Ale Brewery,,Seattle,WA,
865,Scuttlebutt Brewing,1524 West Marine View Drive,Everett,WA,98201
866,Skagit River Brewing,404 South Third Street,Mount Vernon,WA,98273
867,Snipes Mountain Microbrewery & Restaurant,905 Yakima Valley Highway,Sunnyside,WA,98944
868,Thomas Kemper Brewing,91 South Royal Brougham,Seattle,WA,98134
869,Twin Rivers Brewing,104 North Lewis Street,Monroe,WA,98272
870,Walking Man Brewery,240 SW First Street,Stevenson,WA,98648
871,Yakima Brewing and Malting / Grant's Ales,,Yakima,WA,
